KUIPER-00074            
1 64821U 25151F   25226.74965955  .00034743  00000+0  98838-3 0  9991
2 64821  51.8782 145.4628 0003152 251.9277 108.1366 15.35807143  4521
KUIPER-00075            
1 64822U 25151G   25226.74593487  .00023610  00000+0  65785-3 0  9995
2 64822  51.8780 145.4467 0004270 239.8858 120.1705 15.36660560  4525
KUIPER-00076            
1 64823U 25151H   25226.49164678  .00023924  00000+0  68801-3 0  9994
2 64823  51.8795 146.7316 0004740 246.0096 114.0394 15.35662805  4489
KUIPER-00077            
1 64824U 25151J   25226.75442992  .00032430  00000+0  92803-3 0  9993
2 64824  51.8801 145.5021 0005048 258.8573 101.1846 15.35650209  4520
KUIPER-00078            
1 64825U 25151K   25226.75382211  .00017242  00000+0  49921-3 0  9998
2 64825  51.8789 145.4924 0005332 262.2582  97.7798 15.35667573  4520
KUIPER-00079            
1 64826U 25151L   25226.91668981 -.00318651  00000+0 -11363-1 0  9995
2 64826  51.8800 144.6954 0004626 252.2591 285.1976 15.29722360  4084
KUIPER-00080            
1 64827U 25151M   25226.91668981 -.00006666  00000+0 -21257-3 0  9991
2 64827  51.8802 144.7537 0002608 273.9379 254.8114 15.30241234  4699
KUIPER-00082            
1 64828U 25151N   25226.48494672  .00032298  00000+0  91038-3 0  9990
2 64828  51.8779 146.6919 0005556 245.0551 114.9858 15.36123527  4483
KUIPER-00083            
1 64829U 25151P   25226.49232316  .00019286  00000+0  55592-3 0  9994
2 64829  51.8786 146.7364 0004996 246.5544 113.4917 15.35727235  5679
KUIPER-00084            
1 64830U 25151Q   25226.91668981 -.00492637  00000+0 -25366-1 0  9995
2 64830  51.8893 145.7179 0006765 243.2727 138.3902 15.18228324  4277
KUIPER-00085            
1 64831U 25151R   25226.74281009  .00032866  00000+0  92297-3 0  9990
2 64831  51.8778 145.4228 0005249 238.1906 121.8570 15.36231727  4527
KUIPER-00086            
1 64832U 25151S   25226.49508819  .00025301  00000+0  72907-3 0  9996
2 64832  51.8783 146.7563 0005443 261.4355  98.6014 15.35563693  4481
KUIPER-00087            
1 64833U 25151T   25226.74719318  .00029750  00000+0  84363-3 0  9994
2 64833  51.8784 145.4526 0004821 236.6271 123.4254 15.35979990  4527
KUIPER-00089            
1 64834U 25151U   25226.49242146  .00034334  00000+0  98035-3 0  9992
2 64834  51.8793 146.7460 0005436 260.2159  99.8213 15.35689802  4486
KUIPER-00090            
1 64835U 25151V   25226.75701633  .00033785  00000+0  97243-3 0  9992
2 64835  51.8788 145.5162 0005124 266.3828  93.6572 15.35447981  4526
KUIPER-00091            
1 64836U 25151W   25226.48413227  .00035413  00000+0  99820-3 0  9995
2 64836  51.8780 146.6856 0005144 234.7641 125.2864 15.36079178  4486
KUIPER-00092            
1 64837U 25151X   25226.81263370  .00031088  00000+0  88014-3 0  9992
2 64837  51.8780 145.1348 0005205 246.0658 113.9783 15.36006752  5741
KUIPER-00093            
1 64838U 25151Y   25226.75186831  .00014999  00000+0  43452-3 0  9991
2 64838  51.8790 145.4858 0005041 252.4881 107.5555 15.35762387  4522
KUIPER-00094            
1 64839U 25151Z   25226.48686424  .00030903  00000+0  87546-3 0  9990
2 64839  51.8776 146.7022 0005049 247.5089 112.5363 15.35990829  4489
